{
    "links": {
        "self": "http://www.neowsapp.com/rest/v1/neo/3264722?api_key=iIulBulltgU6a56xZRHN4H3l9WmuAYTsLGpBGhQ2"
    },
    "id": "3264722",
    "neo_reference_id": "3264722",
    "name": "(2004 YY23)",
    "designation": "2004 YY23",
    "nasa_jpl_url": "http://ssd.jpl.nasa.gov/sbdb.cgi?sstr=3264722",
    "absolute_magnitude_h": 19.4,
    "estimated_diameter": {
        "kilometers": {
            "estimated_diameter_min": 0.3503926411,
            "estimated_diameter_max": 0.7835017643
        },
        "meters": {
            "estimated_diameter_min": 350.3926411083,
            "estimated_diameter_max": 783.5017643338
        },
        "miles": {
            "estimated_diameter_min": 0.2177238258,
            "estimated_diameter_max": 0.4868452748
        },
        "feet": {
            "estimated_diameter_min": 1149.5821926537,
            "estimated_diameter_max": 2570.543928497
        }
    },
    "is_potentially_hazardous_asteroid": false,
    "close_approach_data": [
        {
            "close_approach_date": "1959-12-15",
            "close_approach_date_full": "1959-Dec-15 18:47",
            "epoch_date_close_approach": -317020380000,
            "relative_velocity": {
                "kilometers_per_second": "9.9329221866",
                "kilometers_per_hour": "35758.5198717422",
                "miles_per_hour": "22218.9536391945"
            },
            "miss_distance": {
                "astronomical": "1.29090944",
                "lunar": "502.16377216",
                "kilometers": "193117302.5868928",
                "miles": "119997527.46820864"
            },
            "orbiting_body": "Juptr"
        },
        {
            "close_approach_date": "1983-09-15",
            "close_approach_date_full": "1983-Sep-15 23:50",
            "epoch_date_close_approach": 432517800000,
            "relative_velocity": {
                "kilometers_per_second": "9.1778763588",
                "kilometers_per_hour": "33040.3548917425",
                "miles_per_hour": "20529.9916270386"
            },
            "miss_distance": {
                "astronomical": "1.2632247593",
                "lunar": "491.3944313677",
                "kilometers": "188975733.322542691",
                "miles": "117424075.6598874958"
            },
            "orbiting_body": "Juptr"
        },
        {
            "close_approach_date": "2004-12-26",
            "close_approach_date_full": "2004-Dec-26 00:07",
            "epoch_date_close_approach": 1104019620000,
            "relative_velocity": {
                "kilometers_per_second": "17.2629221605",
                "kilometers_per_hour": "62146.5197777784",
                "miles_per_hour": "38615.430580809"
            },
            "miss_distance": {
                "astronomical": "0.1565689976",
                "lunar": "60.9053400664",
                "kilometers": "23422388.548995112",
                "miles": "14553997.3665200656"
            },
            "orbiting_body": "Earth"
        },
        {
            "close_approach_date": "2007-06-29",
            "close_approach_date_full": "2007-Jun-29 17:38",
            "epoch_date_close_approach": 1183138680000,
            "relative_velocity": {
                "kilometers_per_second": "8.7794246483",
                "kilometers_per_hour": "31605.9287338745",
                "miles_per_hour": "19638.6949957788"
            },
            "miss_distance": {
                "astronomical": "1.3011849823",
                "lunar": "506.1609581147",
                "kilometers": "194654501.828067701",
                "miles": "120952698.7847922338"
            },
            "orbiting_body": "Juptr"
        }
    ],
    "orbital_data": {
        "orbit_id": "22",
        "orbit_determination_date": "2017-04-06 09:11:38",
        "first_observation_date": "2004-12-22",
        "last_observation_date": "2005-02-04",
        "data_arc_in_days": 44,
        "observations_used": 157,
        "orbit_uncertainty": "6",
        "minimum_orbit_intersection": ".170627",
        "jupiter_tisserand_invariant": "2.396",
        "epoch_osculation": "2459000.5",
        "eccentricity": ".7085496704606563",
        "semi_major_axis": "3.956024735059246",
        "inclination": "28.60217973149604",
        "ascending_node_longitude": "275.9898022562611",
        "orbital_period": "2874.001062883591",
        "perihelion_distance": "1.152984712698812",
        "perihelion_argument": "176.0839249659748",
        "aphelion_distance": "6.75906475741968",
        "perihelion_time": "2459082.268772583032",
        "mean_anomaly": "349.757568808845",
        "mean_motion": ".1252609140091266",
        "equinox": "J2000",
        "orbit_class": {
            "orbit_class_type": "AMO",
            "orbit_class_description": "Near-Earth asteroid orbits similar to that of 1221 Amor",
            "orbit_class_range": "1.017 AU < q (perihelion) < 1.3 AU"
        }
    },
    "is_sentry_object": false
}